{
    "links": {
        "self": "http://www.neowsapp.com/rest/v1/neo/3753578?api_key=iIulBulltgU6a56xZRHN4H3l9WmuAYTsLGpBGhQ2"
    },
    "id": "3753578",
    "neo_reference_id": "3753578",
    "name": "(2016 JG38)",
    "designation": "2016 JG38",
    "nasa_jpl_url": "http://ssd.jpl.nasa.gov/sbdb.cgi?sstr=3753578",
    "absolute_magnitude_h": 24.1,
    "estimated_diameter": {
        "kilometers": {
            "estimated_diameter_min": 0.040230458,
            "estimated_diameter_max": 0.0899580388
        },
        "meters": {
            "estimated_diameter_min": 40.2304579834,
            "estimated_diameter_max": 89.9580388169
        },
        "miles": {
            "estimated_diameter_min": 0.0249980399,
            "estimated_diameter_max": 0.0558973165
        },
        "feet": {
            "estimated_diameter_min": 131.9896957704,
            "estimated_diameter_max": 295.1379320721
        }
    },
    "is_potentially_hazardous_asteroid": false,
    "close_approach_data": [
        {
            "close_approach_date": "2016-07-03",
            "close_approach_date_full": "2016-Jul-03 12:32",
            "epoch_date_close_approach": 1467549120000,
            "relative_velocity": {
                "kilometers_per_second": "8.3044827211",
                "kilometers_per_hour": "29896.1377959676",
                "miles_per_hour": "18576.2973988333"
            },
            "miss_distance": {
                "astronomical": "0.1140181561",
                "lunar": "44.3530627229",
                "kilometers": "17056873.293887507",
                "miles": "10598649.5989093166"
            },
            "orbiting_body": "Earth"
        }
    ],
    "orbital_data": {
        "orbit_id": "4",
        "orbit_determination_date": "2019-02-11 07:08:07",
        "first_observation_date": "2016-05-01",
        "last_observation_date": "2016-05-04",
        "data_arc_in_days": 3,
        "observations_used": 13,
        "orbit_uncertainty": "9",
        "minimum_orbit_intersection": ".0184566",
        "jupiter_tisserand_invariant": "4.328",
        "epoch_osculation": "2457511.5",
        "eccentricity": ".4366905610043659",
        "semi_major_axis": "1.555019730419792",
        "inclination": "3.496284538756558",
        "ascending_node_longitude": "29.53212308503008",
        "orbital_period": "708.2756031445266",
        "perihelion_distance": ".8759572919699155",
        "perihelion_argument": "288.1248304539412",
        "aphelion_distance": "2.234082168869669",
        "perihelion_time": "2457601.972167312475",
        "mean_anomaly": "314.0151036010696",
        "mean_motion": ".5082767194037325",
        "equinox": "J2000",
        "orbit_class": {
            "orbit_class_type": "APO",
            "orbit_class_description": "Near-Earth asteroid orbits which cross the Earth’s orbit similar to that of 1862 Apollo",
            "orbit_class_range": "a (semi-major axis) > 1.0 AU; q (perihelion) < 1.017 AU"
        }
    },
    "is_sentry_object": false
}